GOES 18                 
1 51850U 22021A   26064.81831457  .00000090  00000+0  00000+0 0  9998
2 51850   0.0333  75.5863 0000691 327.0556 278.4855  1.00272735  5559
GOES 19                 
1 60133U 24119A   26064.92492288 -.00000254  00000+0  00000+0 0  9992
2 60133   0.0057  76.8477 0001098 312.7694  31.8042  1.00271692  5928
